```text
output_url = "https://irsa.ipac.caltech.edu/workspace/TMP_tT4fPy_3943902/MOST/pid1256900"
catalog = "wise_merge"
user_input_begin_time = "2018-01-01"
user_input_end_time = "2024 8 2 00:00:00.000"
object_name = "1 Ceres (A801 AA)"
element_epoch = "58119.0000   (2018-Jan-01 00:00:00.0000)"
eccentricity = " 0.075553187290080"
inclination = "10.593467717905810"
argument_perihelion = "73.086768665626551"
ascending_node = "80.309636731668306"
semimajor_axis  =  " 2.767130473045243"
mean_anomaly = "334.911826574496786"
magnitude_parameters = " 3.35  0.00"
job_time_stamp = "Mon Dec 22 14:07:31 2025"
```

|Image_ID|date_obs|time_obs|mjd_obs|ra_obj|dec_obj|sun_dist|geo_dist|dist_ctr|phase|vmag|
|---|---|---|---|---|---|---|---|---|---|---|
|92131a_158_1|2018-04-03|11:45:00.019|58211.48958355|131.123001|30.913188|2.559|2.020|0.35711|21.345|8.18|
|92131a_158_2|2018-04-03|11:45:00.019|58211.48958355|131.123001|30.913188|2.559|2.020|0.35737|21.345|8.18|
|92135a_159_2|2018-04-03|14:53:30.089|58211.62048714|131.136024|30.903505|2.559|2.021|0.21521|21.362|8.18|
|92135a_159_1|2018-04-03|14:53:30.089|58211.62048714|131.136024|30.903505|2.559|2.021|0.21503|21.362|8.18|
|92139a_159_1|2018-04-03|18:02:00.159|58211.75139073|131.149162|30.893791|2.559|2.023|0.09874|21.380|8.18|
|92139a_159_2|2018-04-03|18:02:00.159|58211.75139073|131.149162|30.893791|2.559|2.023|0.09858|21.380|8.18|
|92143a_159_1|2018-04-03|21:10:30.230|58211.88229433|131.162414|30.884046|2.559|2.024|0.13922|21.398|8.19|
|92143a_159_2|2018-04-03|21:10:30.230|58211.88229433|131.162414|30.884046|2.559|2.024|0.13872|21.398|8.19|
|92145a_135_2|2018-04-03|22:44:45.267|58211.94774615|131.169083|30.879162|2.559|2.025|0.36894|21.407|8.19|
|92145a_135_1|2018-04-03|22:44:45.267|58211.94774615|131.169083|30.879162|2.559|2.025|0.36911|21.407|8.19|
|92147a_159_2|2018-04-04|00:19:00.304|58212.01319796|131.175781|30.874271|2.559|2.026|0.28376|21.416|8.19|
|92147a_159_1|2018-04-04|00:19:00.304|58212.01319796|131.175781|30.874271|2.559|2.026|0.28420|21.416|8.19|
|92149a_135_1|2018-04-04|01:53:15.341|58212.07864978|131.182507|30.869372|2.559|2.027|0.32910|21.425|8.19|
|92149a_135_2|2018-04-04|01:53:15.341|58212.07864978|131.182507|30.869372|2.559|2.027|0.32875|21.425|8.19|
|92151a_78_1|2018-04-04|03:27:19.370|58212.14397419|131.189247|30.864490|2.559|2.027|0.47873|21.433|8.19|
|92151a_78_2|2018-04-04|03:27:19.370|58212.14397419|131.189247|30.864490|2.559|2.027|0.47907|21.433|8.19|
|92151a_79_2|2018-04-04|03:27:30.375|58212.14410156|131.189262|30.864465|2.559|2.027|0.43159|21.433|8.19|
|92151a_79_1|2018-04-04|03:27:30.375|58212.14410156|131.189262|30.864465|2.559|2.027|0.43200|21.433|8.19|
|92153a_134_2|2018-04-04|05:01:34.403|58212.20942596|131.196031|30.859576|2.559|2.028|0.34676|21.442|8.19|
|92153a_134_1|2018-04-04|05:01:34.403|58212.20942596|131.196031|30.859576|2.559|2.028|0.34625|21.442|8.19|
|92153a_135_1|2018-04-04|05:01:45.408|58212.20955333|131.196045|30.859551|2.559|2.028|0.36365|21.442|8.19|
|92153a_135_2|2018-04-04|05:01:45.408|58212.20955333|131.196045|30.859551|2.559|2.028|0.36317|21.442|8.19|
|92157a_134_1|2018-04-04|08:10:04.478|58212.34032961|131.209682|30.849724|2.559|2.030|0.25950|21.459|8.20|
|92157a_134_2|2018-04-04|08:10:04.478|58212.34032961|131.209682|30.849724|2.559|2.030|0.25998|21.459|8.20|
